STARLETTE               
1 07646U 75010A   22239.89803197 -.00000164  00000+0 -15989-4 0  9997
2 07646  49.8225 188.2156 0205764 153.5939 207.5615 13.82313238402360
LAGEOS 1                
1 08820U 76039A   22239.47906096  .00000028  00000+0  00000+0 0  9990
2 08820 109.8520  63.3202 0045120 239.6298 107.6302  6.38664854824386
AJISAI (EGS)            
1 16908U 86061A   22239.90180417 -.00000079  00000+0  13212-3 0  9991
2 16908  50.0087  99.3445 0011141 244.1001 211.5714 12.44497108307393
COSMOS 1989 (ETALON 1)  
1 19751U 89001C   22239.48331389  .00000032  00000+0  00000+0 0  9991
2 19751  64.3182 119.9429 0023792 213.3867  27.5071  2.13156361261747
COSMOS 2024 (ETALON 2)  
1 20026U 89039C   22239.75829095 -.00000065  00000+0  00000+0 0  9992
2 20026  65.5326 357.9695 0018556 218.5150 155.0947  2.13204386258881
LAGEOS 2                
1 22195U 92070B   22239.45819962 -.00000009  00000+0  00000+0 0  9997
2 22195  52.6622  64.9165 0138352 299.8611  35.8575  6.47293759705448
STELLA                  
1 22824U 93061B   22240.18694095 -.00000033  00000+0  57921-5 0  9994
2 22824  98.9624 262.9107 0005607 314.8578 142.3346 14.27392592506771
LARES                   
1 38077U 12006A   22239.36354079 -.00000042  00000+0 -22309-4 0  9996
2 38077  69.4924 146.1839 0011463 270.5368  89.4346 12.54931132482806
